COSMOS 2433 (720)       
1 32275U 07052A   26114.88955959 -.00000025  00000+0  00000+0 0  9991
2 32275  65.6073 317.7278 0000877 210.0462 149.9789  2.13103913143929
COSMOS 2432 (719)       
1 32276U 07052B   26115.20217785 -.00000026  00000+0  00000+0 0  9998
2 32276  65.6222 317.8438 0009053 337.4405 206.4819  2.13103026143952
COSMOS 2434 (721)       
1 32393U 07065A   26113.26133750 -.00000006  00000+0  00000+0 0  9993
2 32393  64.3156 193.7675 0001761  53.0873  27.9132  2.13101316142601
COSMOS 2436 (723)       
1 32395U 07065C   26114.86144604 -.00000017  00000+0  00000+0 0  9994
2 32395  64.3242 193.7851 0017184 359.7473   1.3358  2.13100207142595
COSMOS 2456 (730)       
1 36111U 09070A   26116.46927973 -.00000001  00000+0  00000+0 0  9991
2 36111  64.9829  72.7347 0006203 317.1174 222.7507  2.13103360127326
COSMOS 2457 (733)       
1 36112U 09070B   26115.10898264  .00000011  00000+0  00000+0 0  9992
2 36112  64.9676  72.6263 0001155 164.5750 179.6091  2.13100772127296
COSMOS 2460 (732)       
1 36402U 10007C   26115.60205325 -.00000025  00000+0  00000+0 0  9997
2 36402  65.4503 316.2461 0002277  66.9045 297.1399  2.13105948125619
COSMOS 2476 (744)       
1 37867U 11064A   26115.64061854  .00000013  00000+0  00000+0 0  9994
2 37867  65.2415  74.6442 0024289 242.1943 290.2948  2.13103647112648
COSMOS 2477 (745)       
1 37868U 11064B   26115.41341578  .00000015  00000+0  00000+0 0  9996
2 37868  65.2482  74.7307 0021218 243.9746 294.7055  2.13102721112632
COSMOS 2475 (743)       
1 37869U 11064C   26114.77306738  .00000019  00000+0  00000+0 0  9998
2 37869  65.2548  74.7734 0027333 255.5304 107.2412  2.13101455112631
COSMOS 2485 (747)       
1 39155U 13019A   26113.00664174  .00000025  00000+0  00000+0 0  9993
2 39155  65.3905  75.4553 0024583 237.7272 122.0157  2.13103112101109
COSMOS 2492 (754)       
1 39620U 14012A   26111.55782382 -.00000024  00000+0  00000+0 0  9994
2 39620  65.3303 315.8614 0011743 330.3825  29.5784  2.13103169 94037
COSMOS 2500 (755)       
1 40001U 14032A   26115.48233909 -.00000024  00000+0  00000+0 0  9993
2 40001  65.2634 315.4789 0005700 182.1980 177.8272  2.13105815 92338
COSMOS 2501 (702K)      
1 40315U 14075A   26113.39738229 -.00000007  00000+0  00000+0 0  9992
2 40315  63.6140 192.2680 0021796 209.7934 150.1349  2.13101329 88687
COSMOS 2514 (751)       
1 41330U 16008A   26116.19734976 -.00000026  00000+0  00000+0 0  9995
2 41330  65.0524 314.7909 0009488 198.1735 161.8195  2.13102638 79510
COSMOS 2522 (752)       
1 42939U 17055A   26115.09669524 -.00000017  00000+0  00000+0 0  9998
2 42939  64.0763 193.6909 0009475 236.5464 123.4103  2.13101747 66841
COSMOS 2527 (756)       
1 43508U 18053A   26113.18100730  .00000026  00000+0  00000+0 0  9996
2 43508  65.5485  75.7412 0008754 248.5230 111.3649  2.13101928 61109
